[{"OBJECT_NAME":"STARLINK-34780","OBJECT_ID":"2025-165U","EPOCH":"2026-03-09T17:21:31.633920","MEAN_MOTION":15.0564675,"ECCENTRICITY":6.619e-5,"INCLINATION":97.6019,"RA_OF_ASC_NODE":147.234,"ARG_OF_PERICENTER":113.2341,"MEAN_ANOMALY":246.8956,"EPHEMERIS_TYPE":0,"CLASSIFICATION_TYPE":"U","NORAD_CAT_ID":65074,"ELEMENT_SET_NO":999,"REV_AT_EPOCH":3479,"BSTAR":0.00042063792,"MEAN_MOTION_DOT":6.013e-5,"MEAN_MOTION_DDOT":0},{"OBJECT_NAME":"PEGASUS DEB","OBJECT_ID":"1994-029AEZ","EPOCH":"2026-03-07T11:19:28.799040","MEAN_MOTION":14.72051152,"ECCENTRICITY":0.01604515,"INCLINATION":81.6595,"RA_OF_ASC_NODE":342.3991,"ARG_OF_PERICENTER":98.387,"MEAN_ANOMALY":263.5562,"EPHEMERIS_TYPE":0,"CLASSIFICATION_TYPE":"U","NORAD_CAT_ID":39314,"ELEMENT_SET_NO":999,"REV_AT_EPOCH":64575,"BSTAR":0.00096584038,"MEAN_MOTION_DOT":7.465e-5,"MEAN_MOTION_DDOT":0}]
